start=new Date('2022-10-18T00:00:00.000Z').valueOf();
sats=[{"TLE_LINE2":"2 54010  53.2249  32.2647 0002558  14.1261 194.7513 15.78377228  2266","GP_ID":"215414948","MEAN_ANOMALY":"194.7513","REF_FRAME":"TEME","OBJECT_ID":"2022-125AY","PERIAPSIS":"333.323","MEAN_MOTION_DDOT":"0.0000000000000","NORAD_CAT_ID":"54010","LAUNCH_DATE":"2022-10-05","MEAN_ELEMENT_THEORY":"SGP4","RCS_SIZE":"LARGE","MEAN_MOTION":"15.78377228","APOAPSIS":"336.757","PERIOD":"91.233","OBJECT_NAME":"STARLINK-5127","REV_AT_EPOCH":"226","OBJECT_TYPE":"PAYLOAD","CLASSIFICATION_TYPE":"U","TLE_LINE1":"1 54010U 22125AY  22290.91667824 -.00089301  00000-0 -50830-3 0  9992","COUNTRY_CODE":"US","BSTAR":"-0.00050830000000","ARG_OF_PERICENTER":"14.1261","EPOCH":"2022-10-17T22:00:00.999936","ELEMENT_SET_NO":"999","ECCENTRICITY":"0.00025580","INCLINATION":"53.2249","SEMIMAJOR_AXIS":"6713.175","RA_OF_ASC_NODE":"32.2647","DECAY_DATE":null,"FILE":"3619748","EPHEMERIS_TYPE":"0","TIME_SYSTEM":"UTC","CENTER_NAME":"EARTH","MEAN_MOTION_DOT":"-0.00089301","SITE":"AFWTR"},{"OBJECT_TYPE":"PAYLOAD","CLASSIFICATION_TYPE":"U","OBJECT_NAME":"STARLINK-5124","REV_AT_EPOCH":"225","DECAY_DATE":null,"SEMIMAJOR_AXIS":"6727.723","RA_OF_ASC_NODE":"32.4158","MEAN_MOTION_DOT":"-0.00110094","SITE":"AFWTR","TIME_SYSTEM":"UTC","FILE":"3619748","CENTER_NAME":"EARTH","EPHEMERIS_TYPE":"0","COUNTRY_CODE":"US","TLE_LINE1":"1 54011U 22125AZ  22290.91667824 -.00110094  00000-0 -78820-3 0  9996","BSTAR":"-0.00078820000000","ARG_OF_PERICENTER":"32.1569","EPOCH":"2022-10-17T22:00:00.999936","INCLINATION":"53.2187","ECCENTRICITY":"0.00018030","ELEMENT_SET_NO":"999","PERIAPSIS":"348.375","NORAD_CAT_ID":"54011","MEAN_MOTION_DDOT":"0.0000000000000","MEAN_ANOMALY":"101.9120","TLE_LINE2":"2 54011  53.2187  32.4158 0001803  32.1569 101.9120 15.73260388  2256","GP_ID":"215414943","REF_FRAME":"TEME","OBJECT_ID":"2022-125AZ","MEAN_MOTION":"15.73260388","APOAPSIS":"350.801","PERIOD":"91.530","LAUNCH_DATE":"2022-10-05","MEAN_ELEMENT_THEORY":"SGP4","RCS_SIZE":"MEDIUM"},{"CLASSIFICATION_TYPE":"U","OBJECT_TYPE":"PAYLOAD","REV_AT_EPOCH":"225","OBJECT_NAME":"STARLINK-5126","SITE":"AFWTR","MEAN_MOTION_DOT":"-0.00120511","TIME_SYSTEM":"UTC","FILE":"3619748","CENTER_NAME":"EARTH","EPHEMERIS_TYPE":"0","DECAY_DATE":null,"RA_OF_ASC_NODE":"32.4077","SEMIMAJOR_AXIS":"6727.759","ECCENTRICITY":"0.00020780","EPOCH":"2022-10-17T22:00:00.999936","INCLINATION":"53.2193","ELEMENT_SET_NO":"999","ARG_OF_PERICENTER":"29.4603","BSTAR":"-0.00086469000000","COUNTRY_CODE":"US","TLE_LINE1":"1 54012U 22125BA  22290.91667824 -.00120511  00000-0 -86469-3 0  9990","NORAD_CAT_ID":"54012","MEAN_MOTION_DDOT":"0.0000000000000","PERIAPSIS":"348.226","OBJECT_ID":"2022-125BA","REF_FRAME":"TEME","MEAN_ANOMALY":"108.7956","GP_ID":"215414945","TLE_LINE2":"2 54012  53.2193  32.4077 0002078  29.4603 108.7956 15.73247766  2254","PERIOD":"91.530","APOAPSIS":"351.022","MEAN_MOTION":"15.73247766","RCS_SIZE":"MEDIUM","MEAN_ELEMENT_THEORY":"SGP4","LAUNCH_DATE":"2022-10-05"},{"PERIAPSIS":"348.179","MEAN_MOTION_DDOT":"0.0000000000000","NORAD_CAT_ID":"54013","TLE_LINE2":"2 54013  53.2187  32.4095 0002240  18.9999 118.1511 15.73225907  1300","GP_ID":"215452549","MEAN_ANOMALY":"118.1511","REF_FRAME":"TEME","OBJECT_ID":"2022-125BB","MEAN_MOTION":"15.73225907","APOAPSIS":"351.193","PERIOD":"91.532","LAUNCH_DATE":"2022-10-05","MEAN_ELEMENT_THEORY":"SGP4","RCS_SIZE":"LARGE","OBJECT_TYPE":"PAYLOAD","CLASSIFICATION_TYPE":"U","OBJECT_NAME":"STARLINK-5098","REV_AT_EPOCH":"130","SEMIMAJOR_AXIS":"6727.821","RA_OF_ASC_NODE":"32.4095","DECAY_DATE":null,"EPHEMERIS_TYPE":"0","FILE":"3620294","CENTER_NAME":"EARTH","TIME_SYSTEM":"UTC","SITE":"AFWTR","MEAN_MOTION_DOT":"-0.00084317","TLE_LINE1":"1 54013U 22125BB  22290.91667824 -.00084317  00000-0 -60162-3 0  9996","COUNTRY_CODE":"US","BSTAR":"-0.00060162000000","ARG_OF_PERICENTER":"18.9999","EPOCH":"2022-10-17T22:00:00.999936","INCLINATION":"53.2187","ECCENTRICITY":"0.00022400","ELEMENT_SET_NO":"999"},{"CLASSIFICATION_TYPE":"U","OBJECT_TYPE":"PAYLOAD","REV_AT_EPOCH":"225","OBJECT_NAME":"STARLINK-5116","EPHEMERIS_TYPE":"0","FILE":"3619748","TIME_SYSTEM":"UTC","CENTER_NAME":"EARTH","MEAN_MOTION_DOT":"-0.00076934","SITE":"AFWTR","RA_OF_ASC_NODE":"32.4095","SEMIMAJOR_AXIS":"6727.796","DECAY_DATE":null,"ECCENTRICITY":"0.00021560","INCLINATION":"53.2192","EPOCH":"2022-10-17T22:00:00.999936","ELEMENT_SET_NO":"999","ARG_OF_PERICENTER":"23.2376","BSTAR":"-0.00054787000000","TLE_LINE1":"1 54014U 22125BC  22290.91667824 -.00076934  00000-0 -54787-3 0  9999","COUNTRY_CODE":"US","MEAN_MOTION_DDOT":"0.0000000000000","NORAD_CAT_ID":"54014","PERIAPSIS":"348.211","OBJECT_ID":"2022-125BC","REF_FRAME":"TEME","GP_ID":"215414950","TLE_LINE2":"2 54014  53.2192  32.4095 0002156  23.2376 114.4631 15.73234702  2251","MEAN_ANOMALY":"114.4631","PERIOD":"91.531","APOAPSIS":"351.112","MEAN_MOTION":"15.73234702","RCS_SIZE":"MEDIUM","MEAN_ELEMENT_THEORY":"SGP4","LAUNCH_DATE":"2022-10-05"},{"REV_AT_EPOCH":"130","OBJECT_NAME":"STARLINK-5055","CLASSIFICATION_TYPE":"U","OBJECT_TYPE":"PAYLOAD","ARG_OF_PERICENTER":"26.6835","ECCENTRICITY":"0.00021330","EPOCH":"2022-10-17T22:00:00.999936","INCLINATION":"53.2187","ELEMENT_SET_NO":"999","COUNTRY_CODE":"US","TLE_LINE1":"1 54015U 22125BD  22290.91667824 -.00052992  00000-0 -37522-3 0  9996","BSTAR":"-0.00037522000000","FILE":"3620294","EPHEMERIS_TYPE":"0","TIME_SYSTEM":"UTC","CENTER_NAME":"EARTH","SITE":"AFWTR","MEAN_MOTION_DOT":"-0.00052992","SEMIMAJOR_AXIS":"6727.849","RA_OF_ASC_NODE":"32.4047","DECAY_DATE":null,"REF_FRAME":"TEME","OBJECT_ID":"2022-125BD","TLE_LINE2":"2 54015  53.2187  32.4047 0002133  26.6835 112.8088 15.73216198  1307","GP_ID":"215452397","MEAN_ANOMALY":"112.8088","NORAD_CAT_ID":"54015","MEAN_MOTION_DDOT":"0.0000000000000","PERIAPSIS":"348.279","MEAN_ELEMENT_THEORY":"SGP4","RCS_SIZE":"MEDIUM","LAUNCH_DATE":"2022-10-05","PERIOD":"91.532","MEAN_MOTION":"15.73216198","APOAPSIS":"351.149"}];
